full_name,e,q,i,om,w,ad,tp_cal,per_y,class,data_arc,condition_code,n_obs_used,two_body,A1,A2,A3,DT,M1,K1,M2,K2,PC,diameter,extent,albedo,rot_per,GM
"     C/2004 K9 (SOHO)",1.0,0.0049,140.60,18.25,96.73,,20040525.2800000,,PAR,0,,6,T,,,,,,,,,,,,,,
"     C/2004 K10 (SOHO)",1.0,0.0049,143.85,5.46,83.93,,20040525.7200000,,PAR,0,,6,T,,,,,,,,,,,,,,
"     C/2004 K11 (SOHO)",1.0,0.0048,144.20,9.39,87.82,,20040528.1700000,,PAR,0,,14,T,,,,,,,,,,,,,,
"     C/2004 K12 (SOHO)",1.0,0.0049,143.93,10.28,87.99,,20040531.1900000,,PAR,0,,28,T,,,,,,,,,,,,,,
"     C/2004 L1 (LINEAR)",.9976145206970748,2.047413437683466,159.3608170687725,66.17410477857064,243.5791791705089,1714.516159486896,20050330.1083495,25145.0814657266,COM,600,,415,,,,,,12.6,7.,,,,,,,,
"     C/2004 L2 (LINEAR)",.9952152553380186,3.778628734012879,62.51864127374024,99.18013109161828,257.311329235906,1575.669806220969,20051115.1017855,22193.2745880895,COM,1008,,303,,,,,,8.3,9.,12.0,5.,0.03,,,,,
"     C/2004 L3 (SOHO)",1.0,0.0050,133.49,37.61,109.81,,20040605.6200000,,PAR,0,,4,T,,,,,,,,,,,,,,
"     C/2004 L4 (SOHO)",1.0,0.0056,135.88,32.40,102.10,,20040608.4300000,,PAR,1,,7,T,,,,,,,,,,,,,,
"     C/2004 L5 (SOHO)",1.0,0.0050,142.30,12.36,89.25,,20040608.6500000,,PAR,0,,7,T,,,,,,,,,,,,,,
"     C/2004 L6 (SOHO)",1.0,0.0049,137.60,25.12,98.23,,20040609.9900000,,PAR,0,,6,T,,,,,,,,,,,,,,
"     C/2004 L7 (SOHO)",1.0,0.0075,138.77,330.47,55.81,,20040610.1900000,,PAR,0,,19,T,,,,,,,,,,,,,,
"     C/2004 L8 (SOHO)",1.0,0.0049,132.59,355.13,77.92,,20040611.0700000,,PAR,0,,10,T,,,,,,,,,,,,,,
"     C/2004 L9 (SOHO)",1.0,0.0051,141.15,22.25,96.17,,20040611.4800000,,PAR,1,,12,T,,,,,,,,,,,,,,
"     C/2004 L10 (SOHO)",1.0,0.0431,12.54,35.76,69.72,,20040614.1000000,,PAR,1,,16,T,,,,,,,,,,,,,,
"     C/2004 L11 (SOHO)",1.0,0.0080,147.71,343.04,62.25,,20040615.7200000,,PAR,0,,7,T,,,,,,,,,,,,,,
"     C/2004 M1 (SOHO)",1.0,0.0049,145.93,0.01,79.46,,20040618.5200000,,PAR,0,,37,T,,,,,,,,,,,,,,
"     C/2004 M2 (SOHO)",1.0,0.0049,144.72,346.57,67.27,,20040625.7200000,,PAR,1,,22,T,,,,,,,,,,,,,,
"     C/2004 M3 (SOHO)",1.0,0.0078,142.55,320.26,38.05,,20040626.7600000,,PAR,0,,10,T,,,,,,,,,,,,,,
"     C/2004 M4 (SOHO)",1.0,0.0049,144.68,6.04,84.49,,20040627.4100000,,PAR,1,,21,T,,,,,,,,,,,,,,
"     C/2004 M5 (SOHO)",1.0,0.0051,145.12,341.83,62.65,,20040627.9100000,,PAR,0,,10,T,,,,,,,,,,,,,,
"     C/2004 M6 (SOHO)",1.0,0.0050,144.70,344.20,64.99,,20040627.9100000,,PAR,0,,9,T,,,,,,,,,,,,,,
"     C/2004 M7 (SOHO)",1.0,0.0052,144.26,6.15,85.53,,20040628.2500000,,PAR,0,,9,T,,,,,,,,,,,,,,
"     C/2004 N1 (SOHO)",1.0,0.0050,145.83,0.49,79.79,,20040701.6500000,,PAR,0,,10,T,,,,,,,,,,,,,,
"     C/2004 N2 (SOHO)",1.0,0.0047,144.80,353.62,73.45,,20040702.5800000,,PAR,1,,43,T,,,,,,,,,,,,,,
"     C/2004 N3 (SOHO)",1.0,0.0048,144.75,6.41,85.04,,20040706.5300000,,PAR,1,,38,T,,,,,,,,,,,,,,
"     C/2004 N4 (SOHO)",1.0,0.0076,142.03,345.84,67.01,,20040707.9300000,,PAR,0,,10,T,,,,,,,,,,,,,,
"     C/2004 N5 (SOHO)",1.0,0.0055,146.04,357.80,76.56,,20040708.7900000,,PAR,0,,24,T,,,,,,,,,,,,,,
"     C/2004 N6 (SOHO)",1.0,0.0049,137.04,24.76,104.74,,20040709.8500000,,PAR,0,,7,T,,,,,,,,,,,,,,
"     C/2004 O1 (SOHO)",1.0,0.0068,144.67,7.12,85.62,,20040718.7100000,,PAR,2,,57,T,,,,,,,,,,,,,,
"     C/2004 O2 (SOHO)",1.0,0.0058,143.76,354.61,75.24,,20040718.5800000,,PAR,1,,27,T,,,,,,,,,,,,,,
"     C/2004 O3 (SOHO)",1.0,0.0051,138.99,22.27,101.14,,20040726.6400000,,PAR,0,,9,T,,,,,,,,,,,,,,
"     C/2004 P1 (NEAT)",.9992535527626386,6.013773713117611,28.81626706312053,284.1834043693716,16.58447277939423,16107.04395391847,20030808.7356404,723152.93522137,JFc,842,,148,,,,,,10.1,7.,,,,,,,,
"     C/2004 P2 (SOHO)",1.0,0.0050,143.26,5.56,83.60,,20040804.7100000,,PAR,0,,10,T,,,,,,,,,,,,,,
"     C/2004 P3 (SOHO)",1.0,0.0051,145.69,4.68,82.94,,20040806.2900000,,PAR,0,,14,T,,,,,,,,,,,,,,
"     C/2004 P4 (SOHO)",1.0,0.0052,144.85,355.60,74.10,,20040806.9400000,,PAR,0,,15,T,,,,,,,,,,,,,,
"     C/2004 P5 (SOHO)",1.0,0.0061,133.10,324.88,52.72,,20040809.4500000,,PAR,1,,25,T,,,,,,,,,,,,,,
"     C/2004 P6 (SOHO)",1.0,0.0056,143.16,13.10,92.78,,20040814.0100000,,PAR,0,,24,T,,,,,,,,,,,,,,
"     C/2004 P7 (SOHO)",1.0,0.0050,142.67,15.42,95.62,,20040816.4800000,,PAR,1,,42,T,,,,,,,,,,,,,,
"     C/2004 Q1 (Tucker)",.9890422148442717,2.046725480197143,56.08768421173367,22.13016872923223,32.96851053529103,371.5188173936183,20041206.8651921,2552.78021272402,COM,615,,1975,,,,,,9.8,8.,11.8,5.,0.03,,,,,
"     C/2004 Q2 (Machholz)",.9994985940627301,1.20504135535195,38.58896260507633,93.62296917232108,19.5045941814958,4805.444684067956,20050124.9110751,117822.143983611,COM,743,,3628,,1.237532556383019E-8,-1.375092705516764E-9,-2.43584308271435E-9,,9.9,13.,,,,,,,,
"     C/2004 Q3 (SOHO)",1.0,0.0049,144.39,358.53,77.41,,20040820.9700000,,PAR,1,,37,T,,,,,,,,,,,,,,
"     C/2004 Q4 (SOHO)",1.0,0.0047,144.36,359.32,78.16,,20040821.9600000,,PAR,1,,28,T,,,,,,,,,,,,,,
"     C/2004 Q5 (SOHO)",1.0,0.0052,144.53,356.66,75.73,,20040826.1400000,,PAR,0,,11,T,,,,,,,,,,,,,,
"     C/2004 Q6 (SOHO)",1.0,0.0045,144.51,6.29,84.12,,20040826.8900000,,PAR,0,,24,T,,,,,,,,,,,,,,
"     C/2004 R2 (ASAS)",1.0,.1128378967886783,63.1735964481801,182.4634461960027,5.352739212627294,,20041007.8974235,,PAR,18,,66,T,,,,,10.0,6.0,,,,,,,,
"     P/2004 R3 (LINEAR-NEAT)",.441870229165733,2.141468629000005,7.972560621203997,318.808747452792,5.289503540012559,5.532261535219815,20040524.4805479,7.51576157613259,JFc,67,5,144,,,,,,13.5,14.,16.9,5.,0.03,,,,,
"     C/2004 R4 (SOHO)",1.0,0.0054,144.83,5.81,83.36,,20040906.0100000,,PAR,1,,53,T,,,,,,,,,,,,,,
"     C/2004 R5 (SOHO)",1.0,0.0052,143.92,1.93,80.76,,20040905.5700000,,PAR,1,,13,T,,,,,,,,,,,,,,
"     C/2004 R6 (SOHO)",1.0,0.0054,140.49,3.77,93.47,,20040906.3200000,,PAR,0,,10,T,,,,,,,,,,,,,,
"     C/2004 R7 (SOHO)",1.0,0.0086,143.75,357.59,77.53,,20040906.9500000,,PAR,1,,33,T,,,,,,,,,,,,,,
"     C/2004 RG113 (LINEAR)",.9972266973372964,1.942358862459177,21.61822935349578,8.772958416623887,125.3055748959322,1398.812696531056,20050303.7176470,18535.5939309006,COM,332,,417,,,,,,13.9,8.,15.6,5.,0.03,,,,,
"     C/2004 S1 (Van Ness)",1.0,.6817692859109099,114.6669633567552,19.21971177526989,92.81633763519235,,20041208.9209491,,PAR,22,,119,T,,,,,16.0,7.5,,,,,,,,
"     C/2004 S2 (SOHO)",1.0,0.0053,144.91,6.94,81.87,,20040921.3700000,,PAR,0,,8,T,,,,,,,,,,,,,,
"     C/2004 S3 (SOHO)",1.0,0.0069,144.80,5.95,80.70,,20040923.9600000,,PAR,1,,10,T,,,,,,,,,,,,,,
"     C/2004 S4 (SOHO)",1.0,0.0049,144.29,1.86,79.85,,20040929.2400000,,PAR,1,,11,T,,,,,,,,,,,,,,
"     P/2004 T1 (LINEAR-NEAT)",.5076474282923256,1.70957685886308,11.0380215791904,51.46017838246048,336.5238278326534,5.234946058661603,20041107.7705616,6.4703359715982,JFc,234,4,485,,,,,,12.1,21.,15.8,5.,0.03,,,,,
"     C/2004 T2 (SOHO)",1.0,0.0346,73.67,72.45,61.57,,20041009.1000000,,PAR,1,,6,T,,,,,,,,,,,,,,
"     C/2004 T3 (Siding Spring)",.9984217287714151,8.864397141464337,71.96419794613591,50.35495232072542,259.6879683584011,11224.18221856897,20030415.3283012,420929.68127094,COM,476,,108,,,,,,6.6,7.,9.7,5.,0.03,,,,,
"     C/2004 T4 (SOHO)",1.0,0.0048,143.95,1.27,80.00,,20041005.6400000,,PAR,1,,23,T,,,,,,,,,,,,,,
"     C/2004 T5 (SOHO)",1.0,0.0048,144.11,1.56,81.60,,20041006.4000000,,PAR,1,,22,T,,,,,,,,,,,,,,
"     C/2004 T6 (SOHO)",1.0,0.0049,143.90,1.74,80.60,,20041010.9700000,,PAR,0,,18,T,,,,,,,,,,,,,,
"     C/2004 T7 (SOHO)",1.0,0.0048,144.15,4.07,81.25,,20041014.7100000,,PAR,1,,53,T,,,,,,,,,,,,,,
"     C/2004 T8 (SOHO)",1.0,0.0048,144.09,1.33,81.07,,20041004.8100000,,PAR,0,,16,T,,,,,,,,,,,,,,
"     C/2004 U1 (LINEAR)",.9992640333558964,2.659320851681838,130.6253234469265,112.5549681996199,20.13451572789738,7224.08355666265,20041208.7674336,217208.648521242,COM,399,,572,,,,,,9.0,7.5,,,,,,,,
"     C/2004 U2 (SOHO)",1.0,0.0659,84.25,143.49,218.59,,20041018.0100000,,PAR,2,,72,T,,,,,,,,,,,,,,
"     C/2004 U3 (SOHO)",1.0,0.0375,73.25,74.01,57.26,,20041018.6300000,,PAR,0,,6,T,,,,,,,,,,,,,,
"     C/2004 U4 (SOHO)",1.0,0.0053,147.82,356.43,80.35,,20041017.6500000,,PAR,0,,7,T,,,,,,,,,,,,,,
"     C/2004 U5 (SOHO)",1.0,0.0063,138.46,331.03,58.57,,20041021.9200000,,PAR,0,,30,T,,,,,,,,,,,,,,
"     C/2004 U6 (SOHO)",1.0,0.0052,139.47,323.07,56.68,,20041021.9200000,,PAR,0,,7,T,,,,,,,,,,,,,,
"     C/2004 U7 (SOHO)",1.0,0.0052,144.58,11.41,87.45,,20041022.7900000,,PAR,0,,8,T,,,,,,,,,,,,,,
"     C/2004 U8 (SOHO)",1.0,0.0049,143.92,2.93,81.03,,20041024.6700000,,PAR,1,,37,T,,,,,,,,,,,,,,
"     C/2004 U9 (SOHO)",1.0,0.0050,143.62,4.27,81.73,,20041026.1300000,,PAR,1,,43,T,,,,,,,,,,,,,,
"     C/2004 U10 (SOHO)",1.0,0.0076,143.74,9.44,85.67,,20041026.9300000,,PAR,0,,9,T,,,,,,,,,,,,,,
"     C/2004 U11 (SOHO)",1.0,0.0048,144.58,7.41,86.20,,20041028.2800000,,PAR,2,,56,T,,,,,,,,,,,,,,
"     C/2004 U12 (SOHO)",1.0,0.0049,147.11,358.95,84.23,,20041028.4800000,,PAR,0,,8,T,,,,,,,,,,,,,,
"     P/2004 V3 (Siding Spring)",.4463367582522231,3.938299390026282,50.45272999322102,356.0929347427603,322.3649511582221,10.28803565650508,20041111.3419715,18.9715475072695,JFc,355,4,60,,,,,,11.5,10.0,,,,,,,,
"     P/2004 V5-A (LINEAR-Hill)",.4452088464437856,4.410852860277535,19.35812507214365,47.8590532446059,87.68850629085554,11.49009592740209,20050228.7311579,22.4180465714586,JFc,890,2,571,,,,,,8.8,10.,11.9,5.,0.03,,,,,
"     P/2004 V5-B (LINEAR-Hill)",.4452347455436068,4.410901957773785,19.35820944001358,47.85969917605283,87.69229775372035,11.49096616515315,20050228.9994484,22.419990794903,JFc,561,3,439,,,,,,9.2,10.,12.3,5.,0.03,,,,,
"     C/2004 V6 (SOHO)",1.0,0.0053,142.98,12.84,89.75,,20041104.7300000,,PAR,0,,14,T,,,,,,,,,,,,,,
"     C/2004 V7 (SOHO)",1.0,0.0051,143.83,11.45,89.51,,20041104.5300000,,PAR,0,,7,T,,,,,,,,,,,,,,
"     C/2004 V8 (SOHO)",1.0,0.0049,144.46,7.62,85.91,,20041108.6500000,,PAR,1,,36,T,,,,,,,,,,,,,,
"     C/2004 V10 (SOHO)",1.0,0.0488,26.40,81.86,22.79,,20041108.4500000,,PAR,0,,9,T,,,,,,,,,,,,,,
"     C/2004 V11 (SOHO)",1.0,0.0050,143.29,6.52,83.44,,20041109.0900000,,PAR,0,,5,T,,,,,,,,,,,,,,
